start=new Date('2023-01-11T00:00:00.000Z').valueOf();
sats=[{"INCLINATION":"53.0526","ECCENTRICITY":"0.00013420","RA_OF_ASC_NODE":"181.6143","CENTER_NAME":"EARTH","MEAN_MOTION_DDOT":"0.0000000000000","DECAY_DATE":null,"BSTAR":"0.00017589000000","MEAN_ANOMALY":"263.7439","EPOCH":"2023-01-10T19:17:17.385216","RCS_SIZE":"LARGE","REF_FRAME":"TEME","TLE_LINE2":"2 47592  53.0526 181.6143 0001342  96.3703 263.7439 15.06407948106591","NORAD_CAT_ID":"47592","MEAN_ELEMENT_THEORY":"SGP4","REV_AT_EPOCH":"10659","MEAN_MOTION":"15.06407948","EPHEMERIS_TYPE":"0","MEAN_MOTION_DOT":"0.00002340","SITE":"AFETR","SEMIMAJOR_AXIS":"6925.324","OBJECT_ID":"2021-009AW","APOAPSIS":"548.119","OBJECT_NAME":"STARLINK-1997","COUNTRY_CODE":"US","CLASSIFICATION_TYPE":"U","LAUNCH_DATE":"2021-02-04","TLE_LINE1":"1 47592U 21009AW  23010.80367344  .00002340  00000-0  17589-3 0  9992","ARG_OF_PERICENTER":"96.3703","TIME_SYSTEM":"UTC","OBJECT_TYPE":"PAYLOAD","ELEMENT_SET_NO":"999","FILE":"3739267","PERIAPSIS":"546.260","GP_ID":"222720813","PERIOD":"95.592"},{"PERIOD":"95.591","GP_ID":"222719068","FILE":"3739267","PERIAPSIS":"546.294","ELEMENT_SET_NO":"999","OBJECT_TYPE":"PAYLOAD","TIME_SYSTEM":"UTC","ARG_OF_PERICENTER":"84.2618","TLE_LINE1":"1 47593U 21009AX  23010.90687315  .00002762  00000-0  20419-3 0  9991","LAUNCH_DATE":"2021-02-04","COUNTRY_CODE":"US","CLASSIFICATION_TYPE":"U","APOAPSIS":"548.059","OBJECT_NAME":"STARLINK-1998","SEMIMAJOR_AXIS":"6925.311","OBJECT_ID":"2021-009AX","SITE":"AFETR","EPHEMERIS_TYPE":"0","MEAN_MOTION_DOT":"0.00002762","MEAN_MOTION":"15.06412153","REV_AT_EPOCH":"10661","NORAD_CAT_ID":"47593","MEAN_ELEMENT_THEORY":"SGP4","REF_FRAME":"TEME","TLE_LINE2":"2 47593  53.0541 181.1457 0001274  84.2618 275.8516 15.06412153106614","EPOCH":"2023-01-10T21:45:53.840160","RCS_SIZE":"LARGE","MEAN_ANOMALY":"275.8516","BSTAR":"0.00020419000000","DECAY_DATE":null,"MEAN_MOTION_DDOT":"0.0000000000000","CENTER_NAME":"EARTH","RA_OF_ASC_NODE":"181.1457","ECCENTRICITY":"0.00012740","INCLINATION":"53.0541"},{"SEMIMAJOR_AXIS":"6925.356","OBJECT_ID":"2021-009AY","APOAPSIS":"548.180","OBJECT_NAME":"STARLINK-1999","COUNTRY_CODE":"US","CLASSIFICATION_TYPE":"U","LAUNCH_DATE":"2021-02-04","TLE_LINE1":"1 47594U 21009AY  23010.87371759  .00000919  00000-0  80614-4 0  9996","ARG_OF_PERICENTER":"92.6216","TIME_SYSTEM":"UTC","ELEMENT_SET_NO":"999","OBJECT_TYPE":"PAYLOAD","PERIAPSIS":"546.262","FILE":"3739267","PERIOD":"95.592","GP_ID":"222719818","RA_OF_ASC_NODE":"181.2950","INCLINATION":"53.0529","ECCENTRICITY":"0.00013850","CENTER_NAME":"EARTH","MEAN_MOTION_DDOT":"0.0000000000000","BSTAR":"0.00008061400000","DECAY_DATE":null,"REF_FRAME":"TEME","TLE_LINE2":"2 47594  53.0529 181.2950 0001385  92.6216 267.4931 15.06397558106608","MEAN_ANOMALY":"267.4931","RCS_SIZE":"LARGE","EPOCH":"2023-01-10T20:58:09.199776","REV_AT_EPOCH":"10660","NORAD_CAT_ID":"47594","MEAN_ELEMENT_THEORY":"SGP4","EPHEMERIS_TYPE":"0","MEAN_MOTION_DOT":"0.00000919","SITE":"AFETR","MEAN_MOTION":"15.06397558"},{"DECAY_DATE":null,"BSTAR":"0.00017834000000","ECCENTRICITY":"0.00016310","INCLINATION":"53.0550","RA_OF_ASC_NODE":"181.3643","MEAN_MOTION_DDOT":"0.0000000000000","CENTER_NAME":"EARTH","NORAD_CAT_ID":"47595","MEAN_ELEMENT_THEORY":"SGP4","REV_AT_EPOCH":"10660","MEAN_MOTION":"15.06409371","SITE":"AFETR","EPHEMERIS_TYPE":"0","MEAN_MOTION_DOT":"0.00002376","RCS_SIZE":"LARGE","EPOCH":"2023-01-10T20:36:54.176832","MEAN_ANOMALY":"288.6554","TLE_LINE2":"2 47595  53.0550 181.3643 0001631  71.4612 288.6554 15.06409371106605","REF_FRAME":"TEME","LAUNCH_DATE":"2021-02-04","COUNTRY_CODE":"US","CLASSIFICATION_TYPE":"U","ARG_OF_PERICENTER":"71.4612","TLE_LINE1":"1 47595U 21009AZ  23010.85896038  .00002376  00000-0  17834-3 0  9999","OBJECT_NAME":"STARLINK-2000","APOAPSIS":"548.314","OBJECT_ID":"2021-009AZ","SEMIMAJOR_AXIS":"6925.320","PERIAPSIS":"546.055","FILE":"3739267","GP_ID":"222720068","PERIOD":"95.592","TIME_SYSTEM":"UTC","OBJECT_TYPE":"PAYLOAD","ELEMENT_SET_NO":"999"},{"INCLINATION":"53.0525","ECCENTRICITY":"0.00012340","RA_OF_ASC_NODE":"181.6504","CENTER_NAME":"EARTH","MEAN_MOTION_DDOT":"0.0000000000000","DECAY_DATE":null,"BSTAR":"0.00035862000000","MEAN_ANOMALY":"259.5787","EPOCH":"2023-01-10T19:06:40.971456","RCS_SIZE":"LARGE","TLE_LINE2":"2 47596  53.0525 181.6504 0001234 100.5341 259.5787 15.06413483106591","REF_FRAME":"TEME","MEAN_ELEMENT_THEORY":"SGP4","NORAD_CAT_ID":"47596","REV_AT_EPOCH":"10659","MEAN_MOTION":"15.06413483","MEAN_MOTION_DOT":"0.00005066","EPHEMERIS_TYPE":"0","SITE":"AFETR","SEMIMAJOR_AXIS":"6925.307","OBJECT_ID":"2021-009BA","APOAPSIS":"548.027","OBJECT_NAME":"STARLINK-2001","CLASSIFICATION_TYPE":"U","COUNTRY_CODE":"US","LAUNCH_DATE":"2021-02-04","TLE_LINE1":"1 47596U 21009BA  23010.79630754  .00005066  00000-0  35862-3 0  9994","ARG_OF_PERICENTER":"100.5341","TIME_SYSTEM":"UTC","ELEMENT_SET_NO":"999","OBJECT_TYPE":"PAYLOAD","PERIAPSIS":"546.318","FILE":"3739267","GP_ID":"222720314","PERIOD":"95.591"},{"OBJECT_TYPE":"PAYLOAD","ELEMENT_SET_NO":"999","TIME_SYSTEM":"UTC","PERIOD":"95.591","GP_ID":"222719568","FILE":"3739267","PERIAPSIS":"546.143","SEMIMAJOR_AXIS":"6925.316","OBJECT_ID":"2021-009BB","APOAPSIS":"548.219","OBJECT_NAME":"STARLINK-2002","TLE_LINE1":"1 47597U 21009BB  23010.85528220  .00002961  00000-0  21754-3 0  9992","ARG_OF_PERICENTER":"71.2281","COUNTRY_CODE":"US","CLASSIFICATION_TYPE":"U","LAUNCH_DATE":"2021-02-04","REF_FRAME":"TEME","TLE_LINE2":"2 47597  53.0542 181.3927 0001499  71.2281 288.8870 15.06410565106605","MEAN_ANOMALY":"288.8870","RCS_SIZE":"LARGE","EPOCH":"2023-01-10T20:31:36.382080","EPHEMERIS_TYPE":"0","MEAN_MOTION_DOT":"0.00002961","SITE":"AFETR","MEAN_MOTION":"15.06410565","REV_AT_EPOCH":"10660","MEAN_ELEMENT_THEORY":"SGP4","NORAD_CAT_ID":"47597","CENTER_NAME":"EARTH","MEAN_MOTION_DDOT":"0.0000000000000","RA_OF_ASC_NODE":"181.3927","INCLINATION":"53.0542","ECCENTRICITY":"0.00014990","BSTAR":"0.00021754000000","DECAY_DATE":null},{"SITE":"AFETR","MEAN_MOTION_DOT":"-0.00000076","EPHEMERIS_TYPE":"0","MEAN_MOTION":"15.06402693","REV_AT_EPOCH":"10700","NORAD_CAT_ID":"47598","MEAN_ELEMENT_THEORY":"SGP4","TLE_LINE2":"2 47598  53.0515 152.2366 0001562  77.8523 282.2641 15.06402693107004","REF_FRAME":"TEME","RCS_SIZE":"LARGE","EPOCH":"2023-01-10T15:59:34.411200","MEAN_ANOMALY":"282.2641","BSTAR":"0.00001382300000","DECAY_DATE":null,"MEAN_MOTION_DDOT":"0.0000000000000","CENTER_NAME":"EARTH","RA_OF_ASC_NODE":"152.2366","ECCENTRICITY":"0.00015620","INCLINATION":"53.0515","PERIOD":"95.592","GP_ID":"222719319","PERIAPSIS":"546.124","FILE":"3739267","OBJECT_TYPE":"PAYLOAD","ELEMENT_SET_NO":"999","TIME_SYSTEM":"UTC","ARG_OF_PERICENTER":"77.8523","TLE_LINE1":"1 47598U 21009BC  23010.66637050 -.00000076  00000-0  13823-4 0  9999","LAUNCH_DATE":"2021-02-04","CLASSIFICATION_TYPE":"U","COUNTRY_CODE":"US","APOAPSIS":"548.287","OBJECT_NAME":"STARLINK-2003","OBJECT_ID":"2021-009BC","SEMIMAJOR_AXIS":"6925.340"},{"BSTAR":"0.00011627000000","DECAY_DATE":null,"MEAN_MOTION_DDOT":"0.0000000000000","CENTER_NAME":"EARTH","RA_OF_ASC_NODE":"142.2779","ECCENTRICITY":"0.00011060","INCLINATION":"53.0532","SITE":"AFETR","MEAN_MOTION_DOT":"0.00001451","EPHEMERIS_TYPE":"0","MEAN_MOTION":"15.06400274","REV_AT_EPOCH":"10713","NORAD_CAT_ID":"47599","MEAN_ELEMENT_THEORY":"SGP4","TLE_LINE2":"2 47599  53.0532 142.2779 0001106  96.6771 263.4343 15.06400274107136","REF_FRAME":"TEME","EPOCH":"2023-01-10T15:44:59.955936","RCS_SIZE":"LARGE","MEAN_ANOMALY":"263.4343","ARG_OF_PERICENTER":"96.6771","TLE_LINE1":"1 47599U 21009BD  23010.65624949  .00001451  00000-0  11627-3 0  9998","LAUNCH_DATE":"2021-02-04","COUNTRY_CODE":"US","CLASSIFICATION_TYPE":"U","APOAPSIS":"547.979","OBJECT_NAME":"STARLINK-2004","OBJECT_ID":"2021-009BD","SEMIMAJOR_AXIS":"6925.348","PERIOD":"95.592","GP_ID":"222720568","FILE":"3739267","PERIAPSIS":"546.447","OBJECT_TYPE":"PAYLOAD","ELEMENT_SET_NO":"999","TIME_SYSTEM":"UTC"},{"TLE_LINE2":"2 47600  53.0540 142.4271 0001115  96.9750 263.1366 15.06390200107743","REF_FRAME":"TEME","MEAN_ANOMALY":"263.1366","RCS_SIZE":"LARGE","EPOCH":"2023-01-10T14:46:37.204896","REV_AT_EPOCH":"10774","MEAN_ELEMENT_THEORY":"SGP4","NORAD_CAT_ID":"47600","EPHEMERIS_TYPE":"0","MEAN_MOTION_DOT":"0.00002915","SITE":"AFETR","MEAN_MOTION":"15.06390200","RA_OF_ASC_NODE":"142.4271","INCLINATION":"53.0540","ECCENTRICITY":"0.00011150","CENTER_NAME":"EARTH","MEAN_MOTION_DDOT":"0.0000000000000","BSTAR":"0.00021453000000","DECAY_DATE":null,"TIME_SYSTEM":"UTC","OBJECT_TYPE":"PAYLOAD","ELEMENT_SET_NO":"999","PERIAPSIS":"546.471","FILE":"3738862","PERIOD":"95.593","GP_ID":"222636595","OBJECT_ID":"2021-009BE","SEMIMAJOR_AXIS":"6925.379","APOAPSIS":"548.016","OBJECT_NAME":"STARLINK-2005","CLASSIFICATION_TYPE":"U","COUNTRY_CODE":"US","LAUNCH_DATE":"2021-02-04","TLE_LINE1":"1 47600U 21009BE  23010.61570839  .00002915  00000-0  21453-3 0  9999","ARG_OF_PERICENTER":"96.9750"},{"ARG_OF_PERICENTER":"67.4277","TLE_LINE1":"1 47601U 21009BF  23010.65992286  .00000548  00000-0  55713-4 0  9995","LAUNCH_DATE":"2021-02-04","CLASSIFICATION_TYPE":"U","COUNTRY_CODE":"US","OBJECT_NAME":"STARLINK-2006","APOAPSIS":"548.252","OBJECT_ID":"2021-009BF","SEMIMAJOR_AXIS":"6925.354","GP_ID":"222719069","PERIOD":"95.592","PERIAPSIS":"546.186","FILE":"3739267","ELEMENT_SET_NO":"999","OBJECT_TYPE":"PAYLOAD","TIME_SYSTEM":"UTC","DECAY_DATE":null,"BSTAR":"0.00005571300000","MEAN_MOTION_DDOT":"0.0000000000000","CENTER_NAME":"EARTH","ECCENTRICITY":"0.00014920","INCLINATION":"53.0525","RA_OF_ASC_NODE":"142.2568","MEAN_MOTION":"15.06398180","SITE":"AFETR","EPHEMERIS_TYPE":"0","MEAN_MOTION_DOT":"0.00000548","NORAD_CAT_ID":"47601","MEAN_ELEMENT_THEORY":"SGP4","REV_AT_EPOCH":"10713","EPOCH":"2023-01-10T15:50:17.335104","RCS_SIZE":"LARGE","MEAN_ANOMALY":"292.6870","REF_FRAME":"TEME","TLE_LINE2":"2 47601  53.0525 142.2568 0001492  67.4277 292.6870 15.06398180107134"}];
